{
  "type": "FeatureCollection",
  "features": [
    {
      "type": "Feature",
      "properties": {
        "norad_id": 19071,
        "name": "OSCAR 32",
        "group": "nnss",
        "lat": -27.001780661432665,
        "lon": 17.042402610651543,
        "alt_km": 1295.5204917293504,
        "timestamp": "2025-12-24T03:53:29.915778+00:00",
        "meta_object_name": "OSCAR 32",
        "meta_object_id": "1988-033B",
        "meta_epoch": "2025-12-23T19:50:51.879840",
        "meta_mean_motion": 13.27955627,
        "meta_eccentricity": 0.0189157,
        "meta_inclination": 90.3208,
        "meta_ra_of_asc_node": 16.8684,
        "meta_arg_of_pericenter": 136.0866,
        "meta_mean_anomaly": 36.335,
        "meta_ephemeris_type": 0,
        "meta_classification_type": "U",
        "meta_norad_cat_id": 19071,
        "meta_element_set_no": 999,
        "meta_rev_at_epoch": 82412,
        "meta_bstar": 9.9481e-05,
        "meta_mean_motion_dot": 5.9e-07,
        "meta_mean_motion_ddot": 0,
        "tle_line1": "1 19071U 88033B   25357.82698935  .00000059  00000+0  99481-4 0  9990",
        "tle_line2": "2 19071  90.3208  16.8684 0189157 136.0866  36.3350 13.27955627824120"
      },
      "geometry": {
        "type": "Point",
        "coordinates": [
          17.042402610651543,
          -27.001780661432665
        ]
      }
    },
    {
      "type": "Feature",
      "properties": {
        "norad_id": 19223,
        "name": "NOVA 2",
        "group": "nnss",
        "lat": -35.273694949039175,
        "lon": 78.24878720973012,
        "alt_km": 1158.753675805412,
        "timestamp": "2025-12-24T03:53:29.915789+00:00",
        "meta_object_name": "NOVA 2",
        "meta_object_id": "1988-052A",
        "meta_epoch": "2025-12-22T19:59:41.866944",
        "meta_mean_motion": 13.22936943,
        "meta_eccentricity": 0.00297225,
        "meta_inclination": 89.9867,
        "meta_ra_of_asc_node": 78.2599,
        "meta_arg_of_pericenter": 349.0095,
        "meta_mean_anomaly": 130.0034,
        "meta_ephemeris_type": 0,
        "meta_classification_type": "U",
        "meta_norad_cat_id": 19223,
        "meta_element_set_no": 999,
        "meta_rev_at_epoch": 81081,
        "meta_bstar": 0.00019678035,
        "meta_mean_motion_dot": 9.1e-07,
        "meta_mean_motion_ddot": 0,
        "tle_line1": "1 19223U 88052A   25356.83312346  .00000091  00000+0  19678-3 0  9994",
        "tle_line2": "2 19223  89.9867  78.2599 0029722 349.0095 130.0034 13.22936943810819"
      },
      "geometry": {
        "type": "Point",
        "coordinates": [
          78.24878720973012,
          -35.273694949039175
        ]
      }
    },
    {
      "type": "Feature",
      "properties": {
        "norad_id": 19419,
        "name": "OSCAR 25",
        "group": "nnss",
        "lat": 51.40803767954345,
        "lon": -159.67653066346486,
        "alt_km": 1087.0782423650599,
        "timestamp": "2025-12-24T03:53:29.915799+00:00",
        "meta_object_name": "OSCAR 25",
        "meta_object_id": "1988-074A",
        "meta_epoch": "2025-12-23T19:11:04.430112",
        "meta_mean_motion": 13.42625286,
        "meta_eccentricity": 0.0095102,
        "meta_inclination": 90.0337,
        "meta_ra_of_asc_node": 20.28,
        "meta_arg_of_pericenter": 213.8581,
        "meta_mean_anomaly": 323.2352,
        "meta_ephemeris_type": 0,
        "meta_classification_type": "U",
        "meta_norad_cat_id": 19419,
        "meta_element_set_no": 999,
        "meta_rev_at_epoch": 82788,
        "meta_bstar": 0.00012495,
        "meta_mean_motion_dot": 8.1e-07,
        "meta_mean_motion_ddot": 0,
        "tle_line1": "1 19419U 88074A   25357.79935683  .00000081  00000+0  12495-3 0  9995",
        "tle_line2": "2 19419  90.0337  20.2800 0095102 213.8581 323.2352 13.42625286827887"
      },
      "geometry": {
        "type": "Point",
        "coordinates": [
          -159.67653066346486,
          51.40803767954345
        ]
      }
    },
    {
      "type": "Feature",
      "properties": {
        "norad_id": 19420,
        "name": "OSCAR 31",
        "group": "nnss",
        "lat": 11.955051495639255,
        "lon": 20.62558290281395,
        "alt_km": 1168.435240189102,
        "timestamp": "2025-12-24T03:53:29.915809+00:00",
        "meta_object_name": "OSCAR 31",
        "meta_object_id": "1988-074B",
        "meta_epoch": "2025-12-23T12:20:30.247008",
        "meta_mean_motion": 13.4258639,
        "meta_eccentricity": 0.0093467,
        "meta_inclination": 90.0354,
        "meta_ra_of_asc_node": 20.6308,
        "meta_arg_of_pericenter": 208.825,
        "meta_mean_anomaly": 273.2468,
        "meta_ephemeris_type": 0,
        "meta_classification_type": "U",
        "meta_norad_cat_id": 19420,
        "meta_element_set_no": 999,
        "meta_rev_at_epoch": 82795,
        "meta_bstar": 0.00011195,
        "meta_mean_motion_dot": 7.4e-07,
        "meta_mean_motion_ddot": 0,
        "tle_line1": "1 19420U 88074B   25357.51423897  .00000074  00000+0  11195-3 0  9994",
        "tle_line2": "2 19420  90.0354  20.6308 0093467 208.8250 273.2468 13.42586390827956"
      },
      "geometry": {
        "type": "Point",
        "coordinates": [
          20.62558290281395,
          11.955051495639255
        ]
      }
    }
  ]
}